[{"OBJECT_NAME":"STARLINK-3567","OBJECT_ID":"2022-022V","EPOCH":"2026-03-09T05:12:26.354016","MEAN_MOTION":15.08840488,"ECCENTRICITY":0.00017614,"INCLINATION":53.2206,"RA_OF_ASC_NODE":11.2434,"ARG_OF_PERICENTER":84.8005,"MEAN_ANOMALY":275.3188,"EPHEMERIS_TYPE":0,"CLASSIFICATION_TYPE":"U","NORAD_CAT_ID":51871,"ELEMENT_SET_NO":999,"REV_AT_EPOCH":22315,"BSTAR":-5.4139838e-5,"MEAN_MOTION_DOT":-1.15e-5,"MEAN_MOTION_DDOT":0},{"OBJECT_NAME":"QPS-SAR-7 (TSUKUYOMI-II)","OBJECT_ID":"2024-066F","EPOCH":"2026-03-09T22:44:25.024704","MEAN_MOTION":15.07520552,"ECCENTRICITY":3.06e-5,"INCLINATION":45.6053,"RA_OF_ASC_NODE":45.6252,"ARG_OF_PERICENTER":310.671,"MEAN_ANOMALY":49.4148,"EPHEMERIS_TYPE":0,"CLASSIFICATION_TYPE":"U","NORAD_CAT_ID":59447,"ELEMENT_SET_NO":999,"REV_AT_EPOCH":10524,"BSTAR":0.00063712098,"MEAN_MOTION_DOT":9.59e-5,"MEAN_MOTION_DDOT":0}]
